NORAD_CAT_ID,OBJECT_NAME,OBJECT_TYPE,EPOCH,MEAN_MOTION,ECCENTRICITY,INCLINATION,RA_OF_ASC_NODE,ARG_OF_PERICENTER,MEAN_ANOMALY,BSTAR,MEAN_MOTION_DOT,MEAN_MOTION_DDOT,TLE_LINE0,TLE_LINE1,TLE_LINE2,SEMIMAJOR_AXIS,PERIOD,APOGEE,PERIGEE,DECAYED
54792.0,STARLINK-5431,PAYLOAD,2023-12-06 20:36:41,15.08849286,0.0001294,53.2159,142.0804,85.7468,274.3672,0.00021009,3.058e-05,0.0,0 STARLINK-5431,1 54792U 22175AL  23340.85881121  .00003058  00000-0  21009-3 0  9991,2 54792  53.2159 142.0804 0001294  85.7468 274.3672 15.08849286 53399,6917.852,95.437,540.612,538.822,0.0
54792.0,STARLINK-5431,PAYLOAD,2023-12-07 20:27:28,15.0884191,0.0001313,53.216,137.6202,82.6804,277.4338,1.4895e-05,-5.1e-07,0.0,0 STARLINK-5431,1 54792U 22175AL  23341.85241139 -.00000051  00000-0  14895-4 0  9998,2 54792  53.2160 137.6202 0001313  82.6804 277.4338 15.08841910 53541,6917.875,95.437,540.648,538.831,0.0
54792.0,STARLINK-5431,PAYLOAD,2023-12-09 10:36:43,15.08838146,0.000112,53.2153,130.482,86.1013,274.0107,8.8808e-06,-1.46e-06,0.0,0 STARLINK-5431,1 54792U 22175AL  23343.44217382 -.00000146  00000-0  88808-5 0  9999,2 54792  53.2153 130.4820 0001120  86.1013 274.0107 15.08838146 53787,6917.886,95.438,540.526,538.976,0.0
54792.0,STARLINK-5431,PAYLOAD,2023-12-10 13:38:17,15.08838542,0.0001313,53.2153,125.4261,95.9201,264.1941,4.0814e-05,3.62e-06,0.0,0 STARLINK-5431,1 54792U 22175AL  23344.56825501  .00000362  00000-0  40814-4 0  9994,2 54792  53.2153 125.4261 0001313  95.9201 264.1941 15.08838542 56117,6917.885,95.438,540.658,538.842,0.0
54792.0,STARLINK-5431,PAYLOAD,2023-12-10 16:49:03,15.08839288,0.0001285,53.2168,124.8321,96.6433,263.4706,0.00012138,1.644e-05,0.0,0 STARLINK-5431,1 54792U 22175AL  23344.70073490  .00001644  00000-0  12138-3 0  9993,2 54792  53.2168 124.8321 0001285  96.6433 263.4706 15.08839288 53976,6917.883,95.438,540.637,538.859,0.0
54792.0,STARLINK-5431,PAYLOAD,2023-12-11 13:29:04,15.08839222,0.000133,53.2171,120.9663,98.3956,261.7187,8.7441e-05,1.104e-05,0.0,0 STARLINK-5431,1 54792U 22175AL  23345.56185732  .00001104  00000-0  87441-4 0  9992,2 54792  53.2171 120.9663 0001330  98.3956 261.7187 15.08839222 56263,6917.883,95.438,540.668,538.828,0.0
54792.0,STARLINK-5431,PAYLOAD,2023-12-11 16:39:50,15.08841042,0.0001315,53.2175,120.372,96.6606,263.4536,0.00010068,1.315e-05,0.0,0 STARLINK-5431,1 54792U 22175AL  23345.69433612  .00001315  00000-0  10068-3 0  9993,2 54792  53.2175 120.3720 0001315  96.6606 263.4536 15.08841042 56283,6917.877,95.437,540.652,538.833,0.0
54792.0,STARLINK-5431,PAYLOAD,2023-12-12 13:19:51,15.0884047,0.0001334,53.2178,116.5049,87.6587,272.4558,4.374e-05,4.08e-06,0.0,0 STARLINK-5431,1 54792U 22175AL  23346.55545900  .00000408  00000-0  43740-4 0  9999,2 54792  53.2178 116.5049 0001334  87.6587 272.4558 15.08840470 56419,6917.879,95.438,540.667,538.821,0.0
54792.0,STARLINK-5431,PAYLOAD,2023-12-12 16:30:38,15.0882926,0.0001473,53.2179,115.9119,76.8409,283.2747,0.00024813,3.662e-05,0.0,0 STARLINK-5431,1 54792U 22175AL  23346.68794119  .00003662  00000-0  24813-3 0  9995,2 54792  53.2179 115.9119 0001473  76.8409 283.2747 15.08829260 54274,6917.913,95.438,540.797,538.759,0.0
54792.0,STARLINK-5431,PAYLOAD,2023-12-13 14:46:01,15.08844715,0.0001663,53.2185,111.7476,65.0428,295.0737,9.903e-05,1.289e-05,0.0,0 STARLINK-5431,1 54792U 22175AL  23347.61529528  .00001289  00000-0  99030-4 0  9996,2 54792  53.2185 111.7476 0001663  65.0428 295.0737 15.08844715 56570,6917.866,95.437,540.881,538.581,0.0
54792.0,STARLINK-5431,PAYLOAD,2023-12-14 14:36:48,15.08844161,0.0001411,53.2172,107.2938,75.5378,284.5771,5.9839e-05,6.65e-06,0.0,0 STARLINK-5431,1 54792U 22175AL  23348.60889534  .00000665  00000-0  59839-4 0  9992,2 54792  53.2172 107.2938 0001411  75.5378 284.5771 15.08844161 56723,6917.868,95.437,540.709,538.757,0.0
54792.0,STARLINK-5431,PAYLOAD,2023-12-15 11:16:49,15.08839391,0.0001521,53.218,103.423,111.5328,248.5826,-3.6556e-05,-8.7e-06,0.0,0 STARLINK-5431,1 54792U 22175AL  23349.47001943 -.00000870  00000-0 -36556-4 0  9999,2 54792  53.2180 103.4230 0001521 111.5328 248.5826 15.08839391 54697,6917.882,95.438,540.799,538.695,0.0
54792.0,STARLINK-5431,PAYLOAD,2023-12-15 14:27:36,15.08836409,0.0001536,53.218,102.8294,95.3264,264.7903,1.128e-06,-2.7e-06,0.0,0 STARLINK-5431,1 54792U 22175AL  23349.60250147 -.00000270  00000-0  11280-5 0  9997,2 54792  53.2180 102.8294 0001536  95.3264 264.7903 15.08836409 56879,6917.891,95.438,540.819,538.694,0.0
54792.0,STARLINK-5431,PAYLOAD,2023-12-16 14:18:22,15.08841041,0.0001589,53.2184,98.3693,96.5871,263.5302,9.8199e-05,1.275e-05,0.0,0 STARLINK-5431,1 54792U 22175AL  23350.59609775  .00001275  00000-0  98199-4 0  9990,2 54792  53.2184  98.3693 0001589  96.5871 263.5302 15.08841041 57026,6917.877,95.437,540.841,538.643,0.0
54792.0,STARLINK-5431,PAYLOAD,2023-12-17 12:33:47,15.08835213,0.0001595,53.2183,94.2062,98.3964,261.7209,7.7061e-05,9.38e-06,0.0,0 STARLINK-5431,1 54792U 22175AL  23351.52346464  .00000938  00000-0  77061-4 0  9997,2 54792  53.2183  94.2062 0001595  98.3964 261.7209 15.08835213 55006,6917.895,95.438,540.863,538.657,0.0
54792.0,STARLINK-5431,PAYLOAD,2023-12-18 12:24:33,15.08852086,0.0001634,53.2185,89.7465,109.9073,250.2095,5.8009e-05,6.36e-06,0.0,0 STARLINK-5431,1 54792U 22175AL  23352.51705450  .00000636  00000-0  58009-4 0  9997,2 54792  53.2185  89.7465 0001634 109.9073 250.2095 15.08852086 55157,6917.843,95.437,540.839,538.578,0.0
54792.0,STARLINK-5431,PAYLOAD,2023-12-18 13:59:57,15.08815822,0.0001757,53.2182,89.4464,95.2874,264.8318,0.00068731,0.0001066,0.0,0 STARLINK-5431,1 54792U 22175AL  23352.58330171  .00010660  00000-0  68731-3 0  9998,2 54792  53.2182  89.4464 0001757  95.2874 264.8318 15.08815822 57329,6917.954,95.439,541.035,538.604,0.0
54792.0,STARLINK-5431,PAYLOAD,2023-12-19 10:39:57,15.08839437,0.0001479,53.2177,85.5799,85.7656,274.3505,-2.108e-05,-6.23e-06,0.0,0 STARLINK-5431,1 54792U 22175AL  23353.44442015 -.00000623  00000-0 -21080-4 0  9992,2 54792  53.2177  85.5799 0001479  85.7656 274.3505 15.08839437 55290,6917.882,95.438,540.77,538.724,0.0
54792.0,STARLINK-5431,PAYLOAD,2023-12-19 13:50:44,15.0884257,0.0001577,53.2169,84.986,69.5863,290.5298,3.3035e-05,2.38e-06,0.0,0 STARLINK-5431,1 54792U 22175AL  23353.57689970  .00000238  00000-0  33035-4 0  9992,2 54792  53.2169  84.9860 0001577  69.5863 290.5298 15.08842570 57475,6917.873,95.437,540.828,538.647,0.0
54792.0,STARLINK-5431,PAYLOAD,2023-12-20 12:06:08,15.08832062,0.000166,53.2178,80.8196,66.4685,293.6482,-0.00011499,-2.117e-05,0.0,0 STARLINK-5431,1 54792U 22175AL  23354.50426881 -.00002117  00000-0 -11499-3 0  9995,2 54792  53.2178  80.8196 0001660  66.4685 293.6482 15.08832062 55453,6917.905,95.438,540.918,538.621,0.0
54792.0,STARLINK-5431,PAYLOAD,2023-12-20 13:41:31,15.08834193,0.0001746,53.2184,80.5232,66.3393,293.7782,-6.5701e-05,-1.333e-05,0.0,0 STARLINK-5431,1 54792U 22175AL  23354.57050874 -.00001333  00000-0 -65701-4 0  9992,2 54792  53.2184  80.5232 0001746  66.3393 293.7782 15.08834193 57620,6917.898,95.438,540.971,538.555,0.0
54792.0,STARLINK-5431,PAYLOAD,2023-12-21 11:56:55,15.08845814,0.0001631,53.2181,76.3677,65.0344,295.0817,0.00023852,3.511e-05,0.0,0 STARLINK-5431,1 54792U 22175AL  23355.49787005  .00003511  00000-0  23852-3 0  9995,2 54792  53.2181  76.3677 0001631  65.0344 295.0817 15.08845814 55600,6917.863,95.437,540.856,538.599,0.0
54792.0,STARLINK-5431,PAYLOAD,2023-12-22 10:12:19,15.08844595,0.0001399,53.2175,72.205,79.1724,280.9426,0.00017992,2.577e-05,0.0,0 STARLINK-5431,1 54792U 22175AL  23356.42523103  .00002577  00000-0  17992-3 0  9995,2 54792  53.2175  72.2050 0001399  79.1724 280.9426 15.08844595 55741,6917.866,95.437,540.699,538.764,0.0
54792.0,STARLINK-5431,PAYLOAD,2023-12-23 10:03:06,15.0884362,0.0001479,53.2176,67.7414,97.4787,262.6373,-3.0879e-05,-7.79e-06,0.0,0 STARLINK-5431,1 54792U 22175AL  23357.41883050 -.00000779  00000-0 -30879-4 0  9999,2 54792  53.2176  67.7414 0001479  97.4787 262.6373 15.08843620 55898,6917.869,95.437,540.757,538.711,0.0
54792.0,STARLINK-5431,PAYLOAD,2023-12-24 11:29:17,15.08844096,0.0001631,53.2184,62.984,105.2113,254.906,0.00015716,2.214e-05,0.0,0 STARLINK-5431,1 54792U 22175AL  23358.47866970  .00002214  00000-0  15716-3 0  9994,2 54792  53.2184  62.9840 0001631 105.2113 254.9060 15.08844096 56052,6917.868,95.437,540.861,538.605,0.0
54792.0,STARLINK-5431,PAYLOAD,2023-12-25 11:20:03,15.08845921,0.0001678,53.2183,58.5219,112.8533,247.2637,0.00013178,1.81e-05,0.0,0 STARLINK-5431,1 54792U 22175AL  23359.47226673  .00001810  00000-0  13178-3 0  9996,2 54792  53.2183  58.5219 0001678 112.8533 247.2637 15.08845921 58362,6917.862,95.437,540.888,538.566,0.0
54792.0,STARLINK-5431,PAYLOAD,2023-12-26 03:13:55,15.08840074,0.0001647,53.2183,55.5485,119.5613,240.5543,-7.8484e-05,-1.537e-05,0.0,0 STARLINK-5431,1 54792U 22175AL  23360.13466871 -.00001537  00000-0 -78484-4 0  9997,2 54792  53.2183  55.5485 0001647 119.5613 240.5543 15.08840074 56301,6917.88,95.438,540.885,538.606,0.0
54792.0,STARLINK-5431,PAYLOAD,2023-12-26 11:10:51,15.08838293,0.0001489,53.2189,54.0607,90.5598,269.5565,2.7324e-05,1.47e-06,0.0,0 STARLINK-5431,1 54792U 22175AL  23360.46587687  .00000147  00000-0  27324-4 0  9993,2 54792  53.2189  54.0607 0001489  90.5598 269.5565 15.08838293 56351,6917.886,95.438,540.781,538.721,0.0
54792.0,STARLINK-5431,PAYLOAD,2023-12-26 12:46:14,15.08840062,0.0001503,53.219,53.7627,97.8229,262.2934,3.8967e-05,3.32e-06,0.0,0 STARLINK-5431,1 54792U 22175AL  23360.53211478  .00000332  00000-0  38967-4 0  9994,2 54792  53.2190  53.7627 0001503  97.8229 262.2934 15.08840062 58527,6917.88,95.438,540.785,538.705,0.0
54792.0,STARLINK-5431,PAYLOAD,2023-12-27 09:26:15,15.08854822,0.0001762,53.2186,49.8966,119.2535,240.8633,-9.816e-05,-1.851e-05,0.0,0 STARLINK-5431,1 54792U 22175AL  23361.39323020 -.00001851  00000-0 -98160-4 0  9996,2 54792  53.2186  49.8966 0001762 119.2535 240.8633 15.08854822 56491,6917.835,95.437,540.919,538.481,0.0
